[Satellite]
VERSION=1.1
NAME=FLOCK 1B-17
NICKNAME=FLOCK 1B-17
TLE1=1 40140U 98067FF  15055.49540325  .00849495  39241-3  10635-2 0  9995
TLE2=2 40140  51.6253 266.6971 0005870 298.6448 149.2321 16.07037247 27009
